FENGYUN 1C DEB          
1 30732U 99025ASS 25067.34942699  .00000926  00000+0  57896-3 0  9990
2 30732  98.8280  95.8349 0123420 270.4351 100.6628 14.03477496922724
FENGYUN 1C DEB          
1 30735U 99025ASV 25067.12832670  .00003977  00000+0  18035-2 0  9996
2 30735  98.7785 139.3339 0058518 333.5468  84.2648 14.21557014927723
FENGYUN 1C DEB          
1 30736U 99025ASW 25066.16182547  .00001538  00000+0  16066-2 0  9994
2 30736  98.7968 131.7688 0282441  66.1128 351.7917 13.60521222890360
FENGYUN 1C DEB          
1 30737U 99025ASX 25067.77257919  .00001039  00000+0  52902-3 0  9995
2 30737  98.5559  59.8357 0022798 215.5174 320.4726 14.17764113931218
FENGYUN 1C DEB          
1 30738U 99025ASY 25066.75632639  .00077736  00000+0  10928-1 0  9996
2 30738  99.3592 181.9785 0031017 253.6628 106.1166 14.76619855934721
FENGYUN 1C DEB          
1 30739U 99025ASZ 25067.92001345  .00001489  00000+0  76068-3 0  9992
2 30739  98.6734  62.6253 0102806  34.3177  25.9529 14.14381704929495
FENGYUN 1C DEB          
1 30740U 99025ATA 25067.52204147  .00013091  00000+0  37152-2 0  9997
2 30740  98.6830 164.6499 0036331 251.6281 108.0957 14.45168714936054
FENGYUN 1C DEB          
1 30741U 99025ATB 25067.98247637  .00000446  00000+0  26223-3 0  9997
2 30741  98.6903  85.4900 0006094 184.5171 205.4423 14.13017879929870
FENGYUN 1C DEB          
1 30742U 99025ATC 25066.59179611  .00002838  00000+0  16366-2 0  9993
2 30742  98.8824 114.9809 0069732 295.6129 219.4470 14.08689169921438
FENGYUN 1C DEB          
1 30744U 99025ATE 25068.01580437  .00036494  00000+0  64485-2 0  9996
2 30744  98.7254 191.2101 0006771 103.8205 315.8344 14.67258147940073
FENGYUN 1C DEB          
1 30745U 99025ATF 25067.31581020  .00068659  00000+0  74540-2 0  9999
2 30745  99.2334 203.4979 0018537 274.9635 115.3271 14.87668992940615
FENGYUN 1C DEB          
1 30746U 99025ATG 25067.43275556  .00001964  00000+0  82185-3 0  9998
2 30746  99.0436 238.2401 0046601  44.9984   8.9496 14.26698566934621
FENGYUN 1C DEB          
1 30749U 99025ATK 25067.53972323  .00000058  00000+0  68259-4 0  9998
2 30749  98.9166 101.9725 0057063 285.8253  73.6625 13.99712021920604
FENGYUN 1C DEB          
1 30750U 99025ATL 25067.17056928  .00005151  00000+0  21712-2 0  9994
2 30750  98.9330 135.9924 0043988 185.9730 229.3792 14.25606021927949
FENGYUN 1C DEB          
1 30751U 99025ATM 25066.62639713  .00003399  00000+0  18049-2 0  9994
2 30751  98.8705 127.9857 0055347 170.1971 345.0596 14.13426480923249
FENGYUN 1C DEB          
1 30753U 99025ATP 25068.09592972  .00002302  00000+0  12746-2 0  9995
2 30753  98.8283 111.2681 0057640  66.6725 294.0497 14.11437963924247
FENGYUN 1C DEB          
1 30755U 99025ATR 25067.67654329  .00005414  00000+0  13995-2 0  9999
2 30755  98.2496  70.3722 0157125  37.0481  25.0834 14.43146189944173
FENGYUN 1C DEB          
1 30756U 99025ATS 25067.15095874  .00003198  00000+0  15901-2 0  9993
2 30756  99.0059 131.0797 0073386  33.4644  21.6380 14.16381287924448
FENGYUN 1C DEB          
1 30758U 99025ATU 25068.15410017  .00002945  00000+0  15175-2 0  9998
2 30758  98.9963 183.5732 0040924  75.9173  44.1225 14.15502813925867
FENGYUN 1C DEB          
1 30759U 99025ATV 25067.17746355  .00009886  00000+0  27075-2 0  9990
2 30759  99.2562 147.1844 0010574 258.7970 154.1146 14.47339892936014
FENGYUN 1C DEB          
1 30760U 99025ATW 25067.65728888  .00000842  00000+0  54353-3 0  9999
2 30760  98.8150  72.0915 0053968  45.3669 315.1881 14.04895542923033
FENGYUN 1C DEB          
1 30761U 99025ATX 25067.71417927  .00004270  00000+0  14831-2 0  9991
2 30761  98.9622 343.3702 0088559  50.8075 310.0931 14.33870283937406
FENGYUN 1C DEB          
1 30762U 99025ATY 25067.23854116  .00001492  00000+0  92082-3 0  9992
2 30762  98.8614  67.3552 0199350 348.5339  22.2603 13.97566585917339
FENGYUN 1C DEB          
1 30763U 99025ATZ 25068.11239042  .00020761  00000+0  53577-2 0  9991
2 30763  98.8982 121.5672 0024398  45.8705   8.5719 14.49820183931041
FENGYUN 1C DEB          
1 30764U 99025AUA 25067.76649790  .00037948  00000+0  19909-2 0  9993
2 30764  98.7594 353.9701 0111773  32.8901 327.9215 15.10313971969885
FENGYUN 1C DEB          
1 30765U 99025AUB 25067.11300955  .00001876  00000+0  99636-3 0  9997
2 30765  98.8151 117.2427 0067495 284.9853 130.6219 14.13614098928704
FENGYUN 1C DEB          
1 30766U 99025AUC 25066.79085271  .00001675  00000+0  96554-3 0  9995
2 30766  98.6730  77.6190 0084900 146.8141  26.8858 14.08610449588547
FENGYUN 1C DEB          
1 30768U 99025AUE 25067.80426287  .00009763  00000+0  29157-2 0  9996
2 30768  98.6226 153.2374 0028863 214.3871 274.4611 14.42918236938417
FENGYUN 1C DEB          
1 30770U 99025AUG 25067.58591362  .00000985  00000+0  52824-3 0  9996
2 30770  98.6604  81.7007 0013815   9.4582 113.6087 14.15229943929580
FENGYUN 1C DEB          
1 30771U 99025AUH 25067.86228405  .00013332  00000+0  44544-2 0  9992
2 30771  98.8937  32.0874 0028303  43.9439 316.3990 14.37328598930492
FENGYUN 1C DEB          
1 30802U 99025AUL 25067.75689522  .00006452  00000+0  25505-2 0  9997
2 30802  98.8424 149.8391 0022211 136.6294 341.0684 14.29184523932137
FENGYUN 1C DEB          
1 30803U 99025AUM 25068.03343329  .00003683  00000+0  20203-2 0  9995
2 30803  99.2652  93.0163 0107688 258.5356 128.5647 14.09546124920768
FENGYUN 1C DEB          
1 30804U 99025AUN 25067.63035742  .00002781  00000+0  54386-3 0  9996
2 30804  98.9297 115.0382 0188618 316.0445 196.8033 14.53101368951317
FENGYUN 1C DEB          
1 30805U 99025AUP 25068.08693494  .00000824  00000+0  55331-3 0  9998
2 30805  98.8419 119.1498 0070211 341.7325  47.5921 14.02322490921036
FENGYUN 1C DEB          
1 30806U 99025AUQ 25067.92055647  .00001271  00000+0  11561-2 0  9996
2 30806  99.0603 110.6498 0271330 142.6081 342.4006 13.69747247898771
FENGYUN 1C DEB          
1 30809U 99025AUT 25067.75743713  .00005630  00000+0  23372-2 0  9994
2 30809  98.7917 155.0792 0053351 260.7131  98.8012 14.26095173931064
FENGYUN 1C DEB          
1 30810U 99025AUU 25067.73818708  .00013472  00000+0  79021-2 0  9996
2 30810  98.6673 253.4119 0193261 117.1328 244.9691 13.99336717904741
FENGYUN 1C DEB          
1 30811U 99025AUV 25065.62305347  .00001766  00000+0  18376-2 0  9992
2 30811  98.8006 132.5918 0280791  59.7179 303.1433 13.60733206890421
FENGYUN 1C DEB          
1 30814U 99025AUY 25067.80152914  .00020881  00000+0  51849-2 0  9998
2 30814  99.0672  20.0217 0039253 359.4983  30.5245 14.51360297936832
FENGYUN 1C DEB          
1 30815U 99025AUZ 25067.29339774  .00020784  00000+0  44657-2 0  9994
2 30815  99.2937 186.5278 0003526 231.7967 157.8098 14.58575639936869
FENGYUN 1C DEB          
1 30816U 99025AVA 25067.76202611  .00004460  00000+0  22598-2 0  9999
2 30816  98.9293 137.4014 0056737 129.9022 355.2870 14.15707751924433
FENGYUN 1C DEB          
1 30817U 99025AVB 25067.54423625  .00000775  00000+0  54407-3 0  9996
2 30817  98.7721  68.6065 0059078 303.8736  55.6817 14.00332969920016
FENGYUN 1C DEB          
1 30820U 99025AVE 25067.23950944  .00005289  00000+0  25483-2 0  9991
2 30820  98.6703 169.0024 0051766 269.3868 119.2426 14.18407878924577
FENGYUN 1C DEB          
1 30821U 99025AVF 25067.80882225  .00003748  00000+0  98381-3 0  9997
2 30821  99.0681 189.2416 0088554 318.6595 194.8666 14.47544297947509
FENGYUN 1C DEB          
1 30822U 99025AVG 25067.33082624  .00000903  00000+0  51411-3 0  9994
2 30822  98.7642 102.4985 0073976 358.6222  16.5584 14.10896297927613
FENGYUN 1C DEB          
1 30823U 99025AVH 25066.93812293  .00001709  00000+0  10574-2 0  9992
2 30823  98.7241 219.1001 0135248 146.7486 342.9333 14.02087220921401
FENGYUN 1C DEB          
1 30826U 99025AVL 25067.26804459  .00010838  00000+0  12241-2 0  9993
2 30826  98.8619 232.9270 0155265 160.1620 324.0534 14.78315733961556
FENGYUN 1C DEB          
1 30827U 99025AVM 25066.86311107  .00011949  00000+0  44089-2 0  9991
2 30827  98.9927  40.6869 0045805 281.2051  78.3985 14.32037952925350
FENGYUN 1C DEB          
1 30828U 99025AVN 25067.50928304  .00008410  00000+0  95074-3 0  9997
2 30828  98.3680 165.6061 0232314 344.4253  75.8310 14.69136697945466
FENGYUN 1C DEB          
1 30829U 99025AVP 25066.77379984  .00001359  00000+0  81756-3 0  9997
2 30829  98.7648  67.1793 0037048  44.5099 315.9037 14.08118149924923
FENGYUN 1C DEB          
1 30830U 99025AVQ 25067.95504963  .00000795  00000+0  45733-3 0  9995
2 30830  98.7115  63.9977 0029804 262.6934 127.9747 14.11849001926657
FENGYUN 1C DEB          
1 30831U 99025AVR 25066.64230799  .00001952  00000+0  75949-3 0  9992
2 30831  99.2902 199.6882 0056567 119.9617 240.7196 14.30193982612451
FENGYUN 1C DEB          
1 30833U 99025AVT 25067.04154295  .00002060  00000+0  88564-3 0  9993
2 30833  99.8134 179.1908 0033052 244.6366 115.1386 14.25703172604245
FENGYUN 1C DEB          
1 30836U 99025AVW 25066.95993131  .00000907  00000+0  52285-3 0  9994
2 30836  98.7751 106.1878 0025366 321.0307  38.9036 14.11476901580565
FENGYUN 1C DEB          
1 30837U 99025AVX 25066.26057931  .00000950  00000+0  51955-3 0  9999
2 30837  98.6586  60.7871 0031712 214.2732 157.0778 14.14045476928548
FENGYUN 1C DEB          
1 30838U 99025AVY 25067.67511207  .00010088  00000+0  30474-2 0  9992
2 30838  99.0525 323.6910 0039759 271.4964  88.1669 14.42151047934456
FENGYUN 1C DEB          
1 30840U 99025AWA 25067.54604309  .00004713  00000+0  72443-3 0  9998
2 30840  98.0377  87.5091 0227235 165.0117 195.7968 14.58060794690580
FENGYUN 1C DEB          
1 30843U 99025AWD 25067.09393096  .00001319  00000+0  29705-3 0  9991
2 30843  98.8746 123.3656 0148688 245.0026 113.5663 14.51757885952666
FENGYUN 1C DEB          
1 30845U 99025AWF 25064.84509203  .00000471  00000+0  45358-3 0  9992
2 30845  98.3939  98.5809 0192452 313.8568 222.4112 13.76607472903648
FENGYUN 1C DEB          
1 30846U 99025AWG 25067.70186677  .00004450  00000+0  14141-2 0  9993
2 30846  99.2967 216.3837 0055703  73.4864  52.4633 14.39594237939121
